1 22347U 92093AL  18212.09780301  .00000612  00000-0  44485-3 0  9990
2 22347  70.8370 242.9480 0180386 236.6005 154.7521 13.92862192288255
1 22348U 92093AM  18213.33996095 -.00000136  00000-0 -53310-4 0  9999
2 22348  71.2619 334.7999 0107040 142.7064 250.1870 14.06068223308979
1 22349U 92093AN  18212.67216733 +.00000073 +00000-0 +99406-4 0  9994
2 22349 070.8222 309.7120 0186144 249.2289 180.8899 13.80621924285515
1 22351U 92093AQ  18212.69866939  .00000015  00000-0  38813-4 0  9999
2 22351  70.9086  97.7872 0106088  12.5638  18.9876 14.01681507306408
1 22353U 92093AS  18213.12978142  .00000311  00000-0  20131-3 0  9992
2 22353  70.9696 105.7948 0118977 233.5997 277.5951 14.06931042306767
1 22356U 92093AV  18212.91032385 +.00001038 +00000-0 +29151-3 0  9999
2 22356 070.6817 026.4299 0054717 318.3806 191.3026 14.47639161322678
1 22357U 92093AW  18212.57495670 +.00000279 +00000-0 +47186-4 0  9997
2 22357 070.8677 264.1527 0072492 031.4072 117.2483 14.77620364341682
1 22359U 92093AY  18211.34019941  .00000431  00000-0  34378-3 0  9994
2 22359  70.7448  89.8900 0170649 260.8601 220.8364 13.90211730290695
1 22362U 92093BB  18212.78732060  .00000283  00000-0  26211-3 0  9993
2 22362  70.8985 127.1839 0200261 304.5035  88.0943 13.82115043283100
1 22363U 92093BC  18213.20017558  .00000036  00000-0  57327-4 0  9999
2 22363  71.0365 140.1947 0146749 358.8143   1.2597 13.92466433297787
1 22370U 92093BK  18212.75807221 +.00000010 +00000-0 +33483-4 0  9999
2 22370 070.9758 070.2396 0111351 187.3796 291.6142 14.04698716308172
1 22374U 92093BP  18213.45170802  .00000193  00000-0  18412-3 0  9995
2 22374  70.7871 216.2247 0183627 253.9688 259.1882 13.85545883288162
1 22376U 92093BR  18212.02358921 +.00000391 +00000-0 +20239-3 0  9999
2 22376 070.8916 069.7735 0061309 099.8787 049.8509 14.20137717316465
1 22377U 92093BS  18212.84327715  .00000176  00000-0  13104-3 0  9991
2 22377  71.0966 112.8628 0056108  41.8175 318.7209 14.06947621310707
1 22379U 92093BU  18213.10369574  .00000393  00000-0  26305-3 0  9990
2 22379  70.7053 261.1005 0091510 350.6992   9.2424 14.05238366305706
1 22381U 92093BW  18213.14295198  .00001971  00000-0  32880-3 0  9995
2 22381  70.5400 233.6755 0030965 330.1159  29.8220 14.71110742332043
1 22382U 92093BX  18212.66097403 +.00000063 +00000-0 +81858-4 0  9992
2 22382 070.8646 200.8619 0164248 073.8220 037.5689 13.87709213289933
1 22387U 92093CC  18212.96573535  .00000108  00000-0  95321-4 0  9995
2 22387  70.8925 139.1281 0111491  85.4974  38.0121 14.02282181303475
1 22388U 92093CD  18212.07834701 +.00000057 +00000-0 +57397-4 0  9997
2 22388 070.9545 098.3884 0109440 266.0444 162.8105 14.09049924306193
1 22392U 92093CH  18212.60795346  .00000092  00000-0  24818-4 0  9993
2 22392  70.8919 297.5906 0103936  63.2353   4.4978 14.70263412360052
1 22393U 92093CJ  18213.12505966  .00000087  00000-0  78887-4 0  9998
2 22393  71.1232   8.9802 0122874  55.2221  57.4921 14.03355238304206
1 22395U 92093CL  18212.90644531  .00000709  00000-0  31982-3 0  9992
2 22395  71.1498 175.4852 0088678 293.4829  97.0947 14.23461046309794
1 22396U 92093CM  18211.85636583 +.00001555 +00000-0 +23957-3 0  9997
2 22396 070.6515 097.5385 0013189 329.6109 153.8128 14.75204740338643
1 22397U 92093CN  18212.00078121  .00000140  00000-0  83775-4 0  9998
2 22397  70.8030 208.5655 0040499 229.1420 130.6194 14.22911312319867
1 22398U 92093CP  18211.77309532  .00000223  00000-0  16080-3 0  9991
2 22398  70.9545 143.0072 0116061 297.0241  61.9066 14.04039315304884
1 22400U 92093CR  18212.19188595  .00000017  00000-0  46685-4 0  9992
2 22400  71.2405 129.6896 0160425 251.2339 267.6096 13.87114541294009
1 22403U 92093CU  18213.00000459  .00000131  00000-0  10969-3 0  9990
2 22403  70.8929  62.4168 0083901  45.3729 106.1974 14.03492583305663
1 22404U 92093CV  18212.60878119  .00000296  00000-0  45557-4 0  9996
2 22404  71.0521  69.6098 0085102 284.5226 106.3583 14.80601180361200
1 22406U 92093CX  18213.03097060  .00000033  00000-0  65503-4 0  9996
2 22406  70.7514 216.1357 0177233 339.2441  50.8436 13.81576853286463
1 22407U 92093CY  18212.94195060 +.00000053 +00000-0 +79896-4 0  9997
2 22407 070.8617 310.3488 0181698 163.9686 196.7277 13.81932898286327
1 22408U 92093CZ  18212.48349784 -.00000082 +00000-0 -21526-4 0  9992
2 22408 071.0929 325.8155 0127846 096.2459 026.8951 14.05216458303135
1 22410U 92093DB  18212.76125705 +.00000029 +00000-0 +51595-4 0  9999
2 22410 071.0865 063.4460 0110784 318.6975 164.4219 13.95900273300145
1 22415U 92093DG  18212.17717830 -.00000015 +00000-0 +18440-4 0  9993
2 22415 071.1161 271.5223 0125916 345.7370 014.0202 14.03146503305035
1 22416U 92093DH  18212.83839060 -.00000163 +00000-0 -69231-4 0  9996
2 22416 070.9609 346.7229 0081387 318.4849 205.7678 14.05282054311309
1 22418U 92093DK  18212.58748594  .00000110  00000-0  96216-4 0  9994
2 22418  71.1275  57.1265 0131158  82.4369 310.5152 14.00621388302857
1 22419U 92093DL  18212.94216716 +.00000022 +00000-0 +47322-4 0  9997
2 22419 071.1772 199.5643 0107564 192.8954 166.9405 13.94530051299825
1 22420U 92093DM  18212.15429272 +.00000466 +00000-0 +73920-4 0  9990
2 22420 070.9886 109.7938 0068824 120.4780 028.7989 14.76541797339400
1 22421U 92093DN  18212.85052219 -.00000139 +00000-0 -50682-4 0  9990
2 22421 071.0358 348.0631 0096853 342.8933 180.9440 14.09136823311542
1 22422U 92093DP  18212.71020286 +.00000079 +00000-0 +82599-4 0  9998
2 22422 071.1857 103.0006 0092617 103.6553 277.3639 13.98541950301894
1 22425U 92093DS  18212.49800064 +.00000032 +00000-0 +55153-4 0  9991
2 22425 071.1743 236.6173 0115203 226.6127 284.6568 13.93426558297436
1 22426U 92093DT  18212.59329955 +.00000419 +00000-0 +20323-3 0  9997
2 22426 071.3522 172.2305 0136906 134.2122 339.0862 14.18779229314164
1 22430U 92093DX  18212.76941064 -.00000011 +00000-0 +22603-4 0  9995
2 22430 071.2335 243.5234 0114539 068.0119 049.0055 13.94668711299150
1 22432U 92093DZ  18213.13728344  .00000167  00000-0  13409-3 0  9997
2 22432  70.8356 106.5570 0106400 237.9863 275.5269 14.02081184302186
1 22433U 92093EA  18212.83543582  .00000914  00000-0  29271-3 0  9997
2 22433  71.1615 160.4681 0080791 226.9354 132.5002 14.40368165320678
1 22435U 92093EC  18213.57159837  .00000945  00000-0  29858-3 0  9992
2 22435  71.3405  58.6402 0080132  89.8493 302.3043 14.40814547318328
1 22436U 92093ED  18212.94884167 +.00000137 +00000-0 +41779-4 0  9994
2 22436 071.5134 037.6612 0059966 019.1137 130.1028 14.56594930344565
1 22437U 92093EE  18212.53265270 +.00000323 +00000-0 +11462-3 0  9990
2 22437 071.3347 247.2040 0044205 279.5854 080.0291 14.40829252333263
1 22438U 92093EF  18212.65756427 +.00002328 +00000-0 +30983-3 0  9999
2 22438 071.3288 290.5325 0032884 085.9158 065.2119 14.80443967331789
1 22442U 92093EK  18212.62683810  .00000455  00000-0  21169-3 0  9991
2 22442  71.1070 154.2394 0138945 252.0161 106.5781 14.20727054308626
1 22443U 92093EL  18212.60794205  .00000984  00000-0  35337-3 0  9990
2 22443  71.1001 275.9117 0071469 215.1865 297.9538 14.34867023315307
1 22444U 92093EM  18213.13657587  .00000148  00000-0  11411-3 0  9990
2 22444  71.3218  11.9442 0079419  41.8266  72.4487 14.05849869308139
1 22445U 92093EN  18213.32072972 -.00000023  00000-0  11804-4 0  9991
2 22445  71.2751 179.2147 0065696   1.4176 358.7120 14.11696081312339
1 22451U 92093EQ  18212.88458868 -.00000004 +00000-0 +27761-4 0  9998
2 22451 071.1374 164.8590 0130552 147.2304 246.0155 13.93460559298781
1 22453U 92093ES  18212.97670269 +.00000145 +00000-0 +14939-3 0  9998
2 22453 070.8036 198.5928 0173899 209.5243 182.0381 13.85397954288292
1 22454U 92093ET  18212.90924356 +.00000001 +00000-0 +31107-4 0  9999
2 22454 070.9160 194.2196 0104882 069.3332 291.8988 13.98258817302612
1 22455U 92093EU  18213.46333220  .00001202  00000-0  54353-3 0  9997
2 22455  70.8721  82.1673 0121906  46.7890  18.5865 14.20197953304927
1 22456U 92093EV  18212.75983899  .00000985  00000-0  45724-3 0  9991
2 22456  71.2535 135.8830 0123108 260.9904 127.1303 14.19102181303503
1 22458U 92093EX  18212.88076873 +.00000018 +00000-0 +41682-4 0  9999
2 22458 070.8538 016.9472 0072073 130.2413 019.2308 14.01402072305570
1 22459U 92093EY  18212.85125149 +.00000937 +00000-0 +29824-3 0  9991
2 22459 071.1784 004.4560 0084572 075.2274 074.0203 14.40347618315388
1 22468U 92093FH  18212.73684392 +.00000862 +00000-0 +32091-3 0  9995
2 22468 071.1640 240.4685 0102351 302.8511 056.2799 14.31947057307957
1 22471U 92093FL  18213.46723321  .00001375  00000-0  33693-3 0  9995
2 22471  71.1312  21.3950 0063914 192.9415 198.1033 14.53051354323764
1 22473U 92093FN  18212.11884321 +.00000886 +00000-0 +29506-3 0  9990
2 22473 071.3409 265.6484 0090153 290.6509 098.4276 14.37994184311368
1 22474U 92093FP  18212.81925230 +.00000861 +00000-0 +57774-3 0  9994
2 22474 071.3076 329.3362 0176203 258.6005 272.8826 13.96205884287006
1 22475U 92093FQ  18212.90508553 +.00001147 +00000-0 +20519-3 0  9995
2 22475 071.2927 032.9221 0038740 239.1774 120.5565 14.68645584338025
1 22476U 92093FR  18211.78393872 -.00000159  00000-0 -16561-3 0  9993
2 22476  71.5478 349.1666 0488756   9.9546 351.0792 13.20521444222886
1 22477U 92093FS  18213.37147465  .00000460  00000-0  82269-4 0  9998
2 22477  70.8689 184.1846 0068667  83.9581  66.7636 14.71385261351675
1 22478U 92093FT  18212.09485837 +.00001106 +00000-0 +20049-3 0  9990
2 22478 071.3184 096.2826 0037429 231.3305 128.4498 14.68152755336679
1 22480U 92093FV  18212.80139774  .00000372  00000-0  12852-3 0  9995
2 22480  71.1187 148.1374 0076113 333.4674  54.2416 14.40524507319040
1 22481U 92093FW  18212.70222924  .00005970  00000-0  56422-3 0  9995
2 22481  71.2595 108.9127 0029890  68.7962 291.6392 14.93771652324165
1 22493U 92093GC  18212.08112621 +.00000083 +00000-0 +37242-4 0  9991
2 22493 071.0408 092.7606 0107695 129.7653 231.3033 14.44436656354665
1 22494U 92093GD  18212.54856748 +.00000593 +00000-0 +41866-3 0  9990
2 22494 070.8234 274.0049 0186596 286.9781 139.6199 13.94085918286540
